      2.10          N: GNSS NAV DATA                        RINEX VERSION / TYPE
fic2rin                                 04/14/2018 00:28:00 PGM / RUN BY / DATE
                                                            END OF HEADER
27 18  4 13  4  0  0.0 3.702291287482e-04 0.000000000000e+00 0.000000000000e+00
    5.300000000000e+01 6.900000000000e+01 4.140529612535e-09-7.203873640081e-01
    3.641471266747e-06 5.825737374835e-03 9.726732969284e-06 5.153681924820e+03
    4.464000000000e+05 1.657754182816e-07-2.929614053773e+00-5.587935447693e-09
    9.774794520341e-01 1.995937500000e+02 3.884946551389e-01-7.917829809393e-09
    4.600191616446e-10 1.000000000000e+00 1.996000000000e+03 0.000000000000e+00
    2.400000000000e+00 0.000000000000e+00 1.396983861923e-09 5.300000000000e+01
    4.392060000000e+05 4.000000000000e+00
20 18  4 13  4  0  0.0 5.056452937424e-04 9.094947017729e-13 0.000000000000e+00
    7.300000000000e+01-7.684375000000e+01 5.268433737126e-09-2.362100776167e+00
   -3.958120942116e-06 4.272365360521e-03 8.780509233475e-06 5.154833274841e+03
    4.464000000000e+05 1.862645149231e-08-9.380725863514e-01 8.754432201385e-08
    9.280557873058e-01 1.924062500000e+02 1.921848693809e+00-8.353205087378e-09
   -4.296607542379e-10 1.000000000000e+00 1.996000000000e+03 0.000000000000e+00
    2.400000000000e+00 0.000000000000e+00-8.381903171539e-09 7.300000000000e+01
    4.392060000000e+05 4.000000000000e+00
28 18  4 13  4  0  0.0 7.057888433337e-04 3.524291969370e-12 0.000000000000e+00
    8.900000000000e+01-4.625000000000e+01 3.880875939775e-09 1.259616587858e-01
   -2.529472112656e-06 1.953598007094e-02 1.042895019054e-05 5.153679216385e+03
    4.464000000000e+05-3.594905138016e-07 2.396731825821e+00-1.192092895508e-07
    9.862585755713e-01 1.963125000000e+02-1.522643104014e+00-8.037834808083e-09
   -3.225134339791e-10 1.000000000000e+00 1.996000000000e+03 0.000000000000e+00
    2.400000000000e+00 0.000000000000e+00-1.117587089539e-08 8.900000000000e+01
    4.392060000000e+05 4.000000000000e+00
 4 18  4 13  4  0  0.0 5.240039899945e-05 3.069544618484e-12 0.000000000000e+00
    1.020000000000e+02-3.875000000000e+01 5.252004481353e-09 4.633521322933e-01
   -2.071261405945e-06 9.811837924644e-03 1.022405922413e-05 5.153692895889e+03
    4.464000000000e+05-8.568167686462e-08 2.339077939048e+00 9.685754776001e-08
    9.794118995226e-01 1.940000000000e+02 9.111357323919e-01-7.911043812443e-09
   -3.950164540209e-10 1.000000000000e+00 1.996000000000e+03 0.000000000000e+00
    4.850000000000e+00 6.300000000000e+01-1.955777406693e-08 1.020000000000e+02
    4.407060000000e+05 4.000000000000e+00
 4 18  4 13  3 59 44.0 5.239993333817e-05 3.069544618484e-12 0.000000000000e+00
    3.600000000000e+01-3.875000000000e+01 5.252004481353e-09 4.610189769137e-01
   -2.071261405945e-06 9.811835596338e-03 1.022405922413e-05 5.153692892075e+03
    4.463840000000e+05-8.568167686462e-08 2.339078088266e+00 9.685754776001e-08
    9.794119156147e-01 1.940000000000e+02 9.111351896493e-01-7.911043812443e-09
   -3.946592962867e-10 1.000000000000e+00 1.996000000000e+03 0.000000000000e+00
    2.400000000000e+00 6.300000000000e+01-1.955777406693e-08 3.600000000000e+01
    4.409460000000e+05 4.000000000000e+00
19 18  4 13  3 59 44.0-4.440681077540e-04 2.728484105319e-12 0.000000000000e+00
    2.000000000000e+00 6.150000000000e+01 4.078384166785e-09 2.129513455423e+00
    3.101304173470e-06 9.812967153266e-03 9.544193744659e-06 5.153712093353e+03
    4.463840000000e+05-3.725290298462e-08-2.828788970255e+00-2.272427082062e-07
    9.801784349490e-01 2.049687500000e+02 1.152979185982e+00-7.711035481293e-09
    4.643050544549e-10 1.000000000000e+00 1.996000000000e+03 0.000000000000e+00
    2.400000000000e+00 0.000000000000e+00-1.536682248116e-08 2.000000000000e+00
    4.422060000000e+05 4.000000000000e+00
 2 18  4 13  3 59 44.0 1.462260261178e-04-1.125499693444e-11 0.000000000000e+00
    4.300000000000e+01 1.625000000000e+00 5.239146802922e-09-2.581313205988e+00
    1.750886440277e-07 1.788487145677e-02 2.445653080940e-06 5.153714992523e+03
    4.463840000000e+05 3.539025783539e-07-1.933510672972e+00 6.146728992462e-08
    9.494907965486e-01 3.228437500000e+02-1.868366506656e+00-8.384634967987e-09
    2.289381076197e-10 1.000000000000e+00 1.996000000000e+03 0.000000000000e+00
    2.400000000000e+00 0.000000000000e+00-2.048909664154e-08 4.300000000000e+01
    4.422960000000e+05 4.000000000000e+00
 2 18  4 13  5 59 44.0 1.461450010538e-04-1.125499693444e-11 0.000000000000e+00
    4.400000000000e+01 1.415625000000e+01 5.285934466102e-09-1.531239064356e+00
    1.164153218269e-06 1.788563886657e-02 2.525746822357e-06 5.153711727142e+03
    4.535840000000e+05 3.054738044739e-07-1.933570812071e+00 3.427267074585e-07
    9.494920312514e-01 3.221250000000e+02-1.868279116319e+00-8.523212168855e-09
    1.935794919343e-10 1.000000000000e+00 1.996000000000e+03 0.000000000000e+00
    2.400000000000e+00 0.000000000000e+00-2.048909664154e-08 4.400000000000e+01
    4.464060000000e+05 4.000000000000e+00
 4 18  4 13  5 59 44.0 5.242181941867e-05 3.069544618484e-12 0.000000000000e+00
    3.700000000000e+01-4.509375000000e+01 5.213431446060e-09 1.511142111672e+00
   -2.374872565269e-06 9.811653755605e-03 1.008622348309e-05 5.153693515778e+03
    4.535840000000e+05-1.601874828339e-07 2.339021082737e+00 1.862645149231e-09
    9.794090395178e-01 1.963125000000e+02 9.111868306575e-01-7.872113619416e-09
   -3.878732993369e-10 1.000000000000e+00 1.996000000000e+03 0.000000000000e+00
    2.400000000000e+00 6.300000000000e+01-1.955777406693e-08 3.700000000000e+01
    4.464060000000e+05 4.000000000000e+00
19 18  4 13  5 59 44.0-4.440485499799e-04 2.728484105319e-12 0.000000000000e+00
    3.000000000000e+00 6.953125000000e+01 4.023739033453e-09-3.103537490565e+00
    3.397464752197e-06 9.811955504119e-03 9.637326002121e-06 5.153713920593e+03
    4.535840000000e+05 1.210719347000e-07-2.828844487996e+00-1.918524503708e-07
    9.801818684177e-01 2.021562500000e+02 1.152998777381e+00-7.708892534888e-09
    5.089497712294e-10 1.000000000000e+00 1.996000000000e+03 0.000000000000e+00
    2.400000000000e+00 0.000000000000e+00-1.536682248116e-08 3.000000000000e+00
    4.464060000000e+05 4.000000000000e+00
 1 18  4 13  6  0  0.0-4.037283360958e-05-2.501110429876e-12 0.000000000000e+00
    1.000000000000e+01-9.843750000000e+00 4.855559396396e-09-1.877209689913e+00
   -6.295740604401e-07 7.577220443636e-03 3.064051270485e-06 5.153664119720e+03
    4.536000000000e+05 6.519258022308e-08-1.873362483078e+00-6.332993507385e-08
    9.704118212275e-01 3.240625000000e+02 6.131129578614e-01-8.353205087378e-09
    1.603638226540e-10 1.000000000000e+00 1.996000000000e+03 0.000000000000e+00
    2.400000000000e+00 0.000000000000e+00 5.587935447693e-09 1.000000000000e+01
    4.464060000000e+05 4.000000000000e+00
 5 18  4 13  6  0  0.0-9.992625564337e-06 7.958078640513e-13 0.000000000000e+00
    1.010000000000e+02-8.334375000000e+01 4.956635035173e-09 1.111548264881e+00
   -4.038214683533e-06 5.293857306242e-03 9.158626198769e-06 5.153682849884e+03
    4.536000000000e+05-1.490116119385e-08-8.513183024244e-01 5.215406417847e-08
    9.477162476600e-01 1.976875000000e+02 6.115782734099e-01-8.305703108730e-09
   -4.610906348471e-10 1.000000000000e+00 1.996000000000e+03 0.000000000000e+00
    2.400000000000e+00 0.000000000000e+00-1.117587089539e-08 1.010000000000e+02
    4.464060000000e+05 4.000000000000e+00
 3 18  4 13  6  0  0.0 4.952494055033e-05 7.958078640513e-12 0.000000000000e+00
    8.100000000000e+01-7.809375000000e+01 4.498044504465e-09-2.761217185013e+00
   -4.069879651070e-06 1.274019246921e-03 1.023337244987e-05 5.153786422729e+03
    4.536000000000e+05-1.862645149231e-08-8.301096739028e-01-6.891787052155e-08
    9.608340219537e-01 1.783437500000e+02 4.532675138285e-01-8.035691861678e-09
   -4.203746531488e-10 1.000000000000e+00 1.996000000000e+03 0.000000000000e+00
    2.400000000000e+00 0.000000000000e+00 2.328306436539e-09 8.100000000000e+01
    4.464060000000e+05 4.000000000000e+00
 8 18  4 13  6  0  0.0-9.765662252903e-05-1.364242052659e-12 0.000000000000e+00
    7.100000000000e+01 6.700000000000e+01 4.214818421248e-09 5.942943863809e-01
    3.527849912643e-06 3.489131573588e-03 9.691342711449e-06 5.153551244736e+03
    4.536000000000e+05 8.381903171539e-08-2.937770244848e+00-7.823109626770e-08
    9.692976701329e-01 1.957500000000e+02-4.827151214224e-01-7.992118618106e-09
    4.685909472653e-10 1.000000000000e+00 1.996000000000e+03 0.000000000000e+00
    2.400000000000e+00 0.000000000000e+00 5.122274160385e-09 7.100000000000e+01
    4.464060000000e+05 4.000000000000e+00
 7 18  4 13  6  0  0.0 2.082958817482e-04-5.911715561524e-12 0.000000000000e+00
    7.100000000000e+01 7.906250000000e+00 4.869131390295e-09-2.570390822615e+00
    2.942979335785e-07 1.137720514089e-02 3.680586814880e-06 5.153666988373e+03
    4.536000000000e+05 0.000000000000e+00 1.281470335457e+00-1.136213541031e-07
    9.587849506360e-01 3.082500000000e+02-2.539798493327e+00-8.250343659930e-09
    4.250177036933e-11 1.000000000000e+00 1.996000000000e+03 0.000000000000e+00
    2.400000000000e+00 0.000000000000e+00-1.117587089539e-08 7.100000000000e+01
    4.464060000000e+05 4.000000000000e+00
 6 18  4 13  6  0  0.0 4.090638831258e-04-1.705302565824e-12 0.000000000000e+00
    6.300000000000e+01 1.625000000000e+00 4.901275586373e-09-1.686550098713e+00
    1.415610313416e-07 1.213760115206e-03 3.255903720856e-06 5.153599496841e+03
    4.536000000000e+05-5.774199962616e-08-1.881697052144e+00 4.656612873077e-08
    9.701388143814e-01 3.240000000000e+02-1.140097441818e+00-8.401064223760e-09
    1.042900583853e-10 1.000000000000e+00 1.996000000000e+03 0.000000000000e+00
    2.400000000000e+00 0.000000000000e+00 4.656612873077e-09 6.300000000000e+01
    4.464060000000e+05 4.000000000000e+00
